{"fetched_at":"2026-03-29T02:12:04Z","count":15717,"tles":[{"name":"NAPA-2","line1":"1 48963U 21059CN  26087.43187543  .00108608  00000+0  74578-3 0  9991","line2":"2 48963  97.6839 276.8396 0003890 245.2804 114.8054 15.74357543265022","category":"Other"}]}